COMMENT,ORIGINATOR,NORAD_CAT_ID,OBJECT_NAME,OBJECT_TYPE,CLASSIFICATION_TYPE,INTLDES,EPOCH,EPOCH_MICROSECONDS,MEAN_MOTION,ECCENTRICITY,INCLINATION,RA_OF_ASC_NODE,ARG_OF_PERICENTER,MEAN_ANOMALY,EPHEMERIS_TYPE,ELEMENT_SET_NO,REV_AT_EPOCH,BSTAR,MEAN_MOTION_DOT,MEAN_MOTION_DDOT,FILE,TLE_LINE0,TLE_LINE1,TLE_LINE2,OBJECT_ID,OBJECT_NUMBER,SEMIMAJOR_AXIS,PERIOD,APOGEE,PERIGEE,DECAYED
"GENERATED VIA SPACETRACK.ORG API","18 SPCS","48888","SPACEBEE-103","PAYLOAD","U","21059K","2023-09-06 02:53:48","321888","15.38056134","0.0004799","97.604","28.5746","338.8557","21.2488","0","999","12181","0.0012401","0.00046596","0","3999158","0 SPACEBEE-103","1 48888U 21059K   23249.12069817  .00046596  00000-0  12401-2 0  9997","2 48888  97.6040  28.5746 0004799 338.8557  21.2488 15.38056134121818","2021-059K","48888","6829.995","93.625","455.138","448.582","0"
"GENERATED VIA SPACETRACK.ORG API","18 SPCS","48888","SPACEBEE-103","PAYLOAD","U","21059K","2023-09-07 08:33:45","898272","15.38161173","0.0004819","97.6036","29.8549","333.3575","26.7421","0","999","12200","0.0012324","0.00046464","0","3999964","0 SPACEBEE-103","1 48888U 21059K   23250.35678123  .00046464  00000-0  12324-2 0  9998","2 48888  97.6036  29.8549 0004819 333.3575  26.7421 15.38161173122000","2021-059K","48888","6829.684","93.618","454.840","448.258","0"
"GENERATED VIA SPACETRACK.ORG API","18 SPCS","48888","SPACEBEE-103","PAYLOAD","U","21059K","2023-09-07 08:33:45","898272","15.38161173","0.0004819","97.6036","29.8549","333.3575","26.7421","0","999","12200","0.0012324","0.00046464","0","4000037","0 SPACEBEE-103","1 48888U 21059K   23250.35678123  .00046464  00000-0  12324-2 0  9998","2 48888  97.6036  29.8549 0004819 333.3575  26.7421 15.38161173122000","2021-059K","48888","6829.684","93.618","454.840","448.258","0"
"GENERATED VIA SPACETRACK.ORG API","18 SPCS","48888","SPACEBEE-103","PAYLOAD","U","21059K","2023-09-07 14:48:28","713600","15.38182109","0.0004812","97.6036","30.1244","332.3319","27.7669","0","999","12204","0.0012471","0.00047055","0","4000222","0 SPACEBEE-103","1 48888U 21059K   23250.61699900  .00047055  00000-0  12471-2 0  9993","2 48888  97.6036  30.1244 0004812 332.3319  27.7669 15.38182109122046","2021-059K","48888","6829.622","93.617","454.773","448.201","0"
"GENERATED VIA SPACETRACK.ORG API","18 SPCS","48888","SPACEBEE-103","PAYLOAD","U","21059K","2023-09-08 07:58:54","619104","15.38245024","0.0004828","97.6034","30.8656","329.884","30.2126","0","999","12215","0.0012281","0.00046427","0","4000854","0 SPACEBEE-103","1 48888U 21059K   23251.33257661  .00046427  00000-0  12281-2 0  9998","2 48888  97.6034  30.8656 0004828 329.8840  30.2126 15.38245024122150","2021-059K","48888","6829.436","93.613","454.598","448.004","0"
"GENERATED VIA SPACETRACK.ORG API","18 SPCS","48888","SPACEBEE-103","PAYLOAD","U","21059K","2023-09-08 15:47:16","528416","15.38268359","0.0004824","97.6035","31.2026","328.6797","31.4159","0","999","12220","0.0010894","0.00041177","0","4001077","0 SPACEBEE-103","1 48888U 21059K   23251.65783019  .00041177  00000-0  10894-2 0  9999","2 48888  97.6035  31.2026 0004824 328.6797  31.4159 15.38268359122202","2021-059K","48888","6829.367","93.612","454.526","447.937","0"
"GENERATED VIA SPACETRACK.ORG API","18 SPCS","48888","SPACEBEE-103","PAYLOAD","U","21059K","2023-09-08 22:01:57","640800","15.38294697","0.0004818","97.6034","31.4721","327.8085","32.2865","0","999","12224","0.0011793","0.00044641","0","4001154","0 SPACEBEE-103","1 48888U 21059K   23251.91802825  .00044641  00000-0  11793-2 0  9993","2 48888  97.6034  31.4721 0004818 327.8085  32.2865 15.38294697122240","2021-059K","48888","6829.289","93.610","454.444","447.863","0"
"GENERATED VIA SPACETRACK.ORG API","18 SPCS","48888","SPACEBEE-103","PAYLOAD","U","21059K","2023-09-09 08:57:38","801664","15.38335827","0.0004842","97.6032","31.9439","326.1964","33.8971","0","999","12231","0.0012243","0.0004642","0","4001770","0 SPACEBEE-103","1 48888U 21059K   23252.37336576  .00046420  00000-0  12243-2 0  9997","2 48888  97.6032  31.9439 0004842 326.1964  33.8971 15.38335827122318","2021-059K","48888","6829.167","93.608","454.339","447.725","0"
"GENERATED VIA SPACETRACK.ORG API","18 SPCS","48888","SPACEBEE-103","PAYLOAD","U","21059K","2023-09-09 15:12:18","994752","15.38359581","0.0004854","97.6031","32.2135","325.2975","34.7952","0","999","12235","0.0012463","0.00047298","0","4001944","0 SPACEBEE-103","1 48888U 21059K   23252.63355318  .00047298  00000-0  12463-2 0  9999","2 48888  97.6031  32.2135 0004854 325.2975  34.7952 15.38359581122355","2021-059K","48888","6829.097","93.606","454.277","447.647","0"
"GENERATED VIA SPACETRACK.ORG API","18 SPCS","48888","SPACEBEE-103","PAYLOAD","U","21059K","2023-09-10 08:22:37","605504","15.38426623","0.000494","97.6031","32.9549","322.5288","37.5612","0","999","12246","0.0012091","0.00045976","0","4002632","0 SPACEBEE-103","1 48888U 21059K   23253.34904636  .00045976  00000-0  12091-2 0  9999","2 48888  97.6031  32.9549 0004940 322.5288  37.5612 15.38426623122462","2021-059K","48888","6828.898","93.602","454.137","447.390","0"
"GENERATED VIA SPACETRACK.ORG API","18 SPCS","48888","SPACEBEE-103","PAYLOAD","U","21059K","2023-09-10 22:25:34","574016","15.38479757","0.0004969","97.6033","33.5616","320.596","39.4922","0","999","12255","0.00122","0.00046475","0","4003185","0 SPACEBEE-103","1 48888U 21059K   23253.93442794  .00046475  00000-0  12200-2 0  9993","2 48888  97.6033  33.5616 0004969 320.5960  39.4922 15.38479757122553","2021-059K","48888","6828.741","93.599","453.999","447.213","0"
"GENERATED VIA SPACETRACK.ORG API","18 SPCS","48888","SPACEBEE-103","PAYLOAD","U","21059K","2023-09-11 09:21:10","938816","15.38523711","0.0004937","97.6034","34.0332","318.694","41.3931","0","999","12262","0.0012564","0.00047941","0","4003535","0 SPACEBEE-103","1 48888U 21059K   23254.38970994  .00047941  00000-0  12564-2 0  9993","2 48888  97.6034  34.0332 0004937 318.6940  41.3931 15.38523711122626","2021-059K","48888","6828.611","93.596","453.847","447.105","0"
"GENERATED VIA SPACETRACK.ORG API","18 SPCS","48888","SPACEBEE-103","PAYLOAD","U","21059K","2023-09-12 08:45:59","385888","15.38620499","0.0004998","97.6038","35.0442","314.6792","45.4044","0","999","12277","0.0013464","0.00051568","0","4004355","0 SPACEBEE-103","1 48888U 21059K   23255.36527067  .00051568  00000-0  13464-2 0  9991","2 48888  97.6038  35.0442 0004998 314.6792  45.4044 15.38620499122778","2021-059K","48888","6828.325","93.590","453.603","446.777","0"
"GENERATED VIA SPACETRACK.ORG API","18 SPCS","48888","SPACEBEE-103","PAYLOAD","U","21059K","2023-09-12 08:45:59","385888","15.38620499","0.0004998","97.6038","35.0442","314.6792","45.4044","0","999","12277","0.0013464","0.00051568","0","4004425","0 SPACEBEE-103","1 48888U 21059K   23255.36527067  .00051568  00000-0  13464-2 0  9991","2 48888  97.6038  35.0442 0004998 314.6792  45.4044 15.38620499122778","2021-059K","48888","6828.325","93.590","453.603","446.777","0"
"GENERATED VIA SPACETRACK.ORG API","18 SPCS","48888","SPACEBEE-103","PAYLOAD","U","21059K","2023-09-12 21:15:10","821024","15.38692003","0.0005018","97.604","35.5836","312.6441","47.438","0","999","12285","0.0018019","0.00069365","0","4004701","0 SPACEBEE-103","1 48888U 21059K   23255.88554191  .00069365  00000-0  18019-2 0  9991","2 48888  97.6040  35.5836 0005018 312.6441  47.4380 15.38692003122850","2021-059K","48888","6828.113","93.586","453.405","446.552","0"
"GENERATED VIA SPACETRACK.ORG API","18 SPCS","48888","SPACEBEE-103","PAYLOAD","U","21059K","2023-09-12 21:15:10","821024","15.38692003","0.0005018","97.604","35.5836","312.6441","47.438","0","999","12285","0.0018019","0.00069365","0","4004964","0 SPACEBEE-103","1 48888U 21059K   23255.88554191  .00069365  00000-0  18019-2 0  9991","2 48888  97.6040  35.5836 0005018 312.6441  47.4380 15.38692003122850","2021-059K","48888","6828.113","93.586","453.405","446.552","0"
"GENERATED VIA SPACETRACK.ORG API","18 SPCS","48888","SPACEBEE-103","PAYLOAD","U","21059K","2023-09-13 08:10:41","637216","15.38755791","0.0005008","97.6042","36.0553","310.8978","49.1833","0","999","12292","0.0018419","0.0007107","0","4005353","0 SPACEBEE-103","1 48888U 21059K   23256.34075969  .00071070  00000-0  18419-2 0  9994","2 48888  97.6042  36.0553 0005008 310.8978  49.1833 15.38755791122922","2021-059K","48888","6827.924","93.582","453.209","446.370","0"
"GENERATED VIA SPACETRACK.ORG API","18 SPCS","48888","SPACEBEE-103","PAYLOAD","U","21059K","2023-09-13 20:39:49","289760","15.38813016","0.0005082","97.6046","36.5954","309.8711","50.2086","0","999","12300","0.0015175","0.00058552","0","4005648","0 SPACEBEE-103","1 48888U 21059K   23256.86098715  .00058552  00000-0  15175-2 0  9991","2 48888  97.6046  36.5954 0005082 309.8711  50.2086 15.38813016123009","2021-059K","48888","6827.755","93.579","453.090","446.150","0"
"GENERATED VIA SPACETRACK.ORG API","18 SPCS","48888","SPACEBEE-103","PAYLOAD","U","21059K","2023-09-13 22:13:27","625152","15.38819912","0.0005073","97.6046","36.6628","309.5788","50.5008","0","999","12301","0.0014679","0.00056634","0","4005927","0 SPACEBEE-103","1 48888U 21059K   23256.92601418  .00056634  00000-0  14679-2 0  9995","2 48888  97.6046  36.6628 0005073 309.5788  50.5008 15.38819912123018","2021-059K","48888","6827.735","93.578","453.063","446.136","0"
"GENERATED VIA SPACETRACK.ORG API","18 SPCS","48888","SPACEBEE-103","PAYLOAD","U","21059K","2023-09-14 09:08:55","212576","15.38871934","0.0005054","97.6047","37.1345","306.9551","53.123","0","999","12308","0.0014033","0.00054212","0","4006374","0 SPACEBEE-103","1 48888U 21059K   23257.38119459  .00054212  00000-0  14033-2 0  9999","2 48888  97.6047  37.1345 0005054 306.9551  53.1230 15.38871934123084","2021-059K","48888","6827.581","93.575","452.897","445.995","0"
